{
"type": "FeatureCollection",
"name": "li_water_points",
"crs": { "type": "name", "properties": { "name": "urn:ogc:def:crs:OGC:1.3:CRS84" } },
"features": [
{ "type": "Feature", "properties": { "full_id": "n357545552", "osm_id": "357545552", "osm_type": "node", "leisure": null, "natural": "beach", "shop": null, "waterway": null, "man_made": null, "amenity": null, "image": null, "description": null, "website": null, "alt_name": null, "phone": null, "nysgissam:nysaddresspointid": null, "addr:street": null, "addr:postcode": null, "addr:housenumber": null, "addr:city": null, "seamark:type": null, "seamark:small_craft_facility:category": null, "brand:wikidata": null, "brand": null, "surface": null, "opening_hours": null, "lit": null, "fee": null, "crane:type": null, "operator": null, "manhole": null, "addr:state": null, "wikidata": "Q34637639", "name": "Atlantic Beach", "gnis:feature_id": "942672", "ele": "0", "barrier": null, "access": null }, "geometry": { "type": "Point", "coordinates": [ -73.728743, 40.585938 ] } },
{ "type": "Feature", "properties": { "full_id": "n357557431", "osm_id": "357557431", "osm_type": "node", "leisure": null, "natural": "beach", "shop": null, "waterway": null, "man_made": null, "amenity": null, "image": null, "description": null, "website": null, "alt_name": null, "phone": null, "nysgissam:nysaddresspointid": null, "addr:street": null, "addr:postcode": null, "addr:housenumber": null, "addr:city": null, "seamark:type": null, "seamark:small_craft_facility:category": null, "brand:wikidata": null, "brand": null, "surface": null, "opening_hours": null, "lit": null, "fee": null, "crane:type": null, "operator": null, "manhole": null, "addr:state": null, "wikidata": null, "name": "East Atlantic Beach", "gnis:feature_id": "948966", "ele": "0", "barrier": null, "access": null }, "geometry": { "type": "Point", "coordinates": [ -73.7034646, 40.5837157 ] } },
{ "type": "Feature", "properties": { "full_id": "n357569022", "osm_id": "357569022", "osm_type": "node", "leisure": null, "natural": "beach", "shop": null, "waterway": null, "man_made": null, "amenity": null, "image": null, "description": null, "website": null, "alt_name": null, "phone": null, "nysgissam:nysaddresspointid": null, "addr:street": null, "addr:postcode": null, "addr:housenumber": null, "addr:city": null, "seamark:type": null, "seamark:small_craft_facility:category": null, "brand:wikidata": null, "brand": null, "surface": null, "opening_hours": null, "lit": null, "fee": null, "crane:type": null, "operator": null, "manhole": null, "addr:state": null, "wikidata": "Q34689237", "name": "Lido Beach", "gnis:feature_id": "955288", "ele": "0", "barrier": null, "access": null }, "geometry": { "type": "Point", "coordinates": [ -73.616796, 40.5867704 ] } },
{ "type": "Feature", "properties": { "full_id": "n357569527", "osm_id": "357569527", "osm_type": "node", "leisure": null, "natural": "beach", "shop": null, "waterway": null, "man_made": null, "amenity": null, "image": null, "description": null, "website": null, "alt_name": null, "phone": null, "nysgissam:nysaddresspointid": null, "addr:street": null, "addr:postcode": null, "addr:housenumber": null, "addr:city": null, "seamark:type": null, "seamark:small_craft_facility:category": null, "brand:wikidata": null, "brand": null, "surface": null, "opening_hours": null, "lit": null, "fee": null, "crane:type": null, "operator": null, "manhole": null, "addr:state": null, "wikidata": "Q49321847", "name": "Long Beach", "gnis:feature_id": "955831", "ele": "0", "barrier": null, "access": null }, "geometry": { "type": "Point", "coordinates": [ -73.6659638, 40.5834375 ] } },
{ "type": "Feature", "properties": { "full_id": "n369036693", "osm_id": "369036693", "osm_type": "node", "leisure": null, "natural": "bay", "shop": null, "waterway": null, "man_made": null, "amenity": null, "image": null, "description": null, "website": null, "alt_name": null, "phone": null, "nysgissam:nysaddresspointid": null, "addr:street": null, "addr:postcode": null, "addr:housenumber": null, "addr:city": null, "seamark:type": null, "seamark:small_craft_facility:category": null, "brand:wikidata": null, "brand": null, "surface": null, "opening_hours": null, "lit": null, "fee": null, "crane:type": null, "operator": null, "manhole": null, "addr:state": "NY", "wikidata": "Q34639319", "name": "Baldwin Bay", "gnis:feature_id": "942890", "ele": "0", "barrier": null, "access": null }, "geometry": { "type": "Point", "coordinates": [ -73.5901893, 40.6298157 ] } },
{ "type": "Feature", "properties": { "full_id": "n369036699", "osm_id": "369036699", "osm_type": "node", "leisure": null, "natural": "bay", "shop": null, "waterway": null, "man_made": null, "amenity": null, "image": null, "description": null, "website": null, "alt_name": null, "phone": null, "nysgissam:nysaddresspointid": null, "addr:street": null, "addr:postcode": null, "addr:housenumber": null, "addr:city": null, "seamark:type": null, "seamark:small_craft_facility:category": null, "brand:wikidata": null, "brand": null, "surface": null, "opening_hours": null, "lit": null, "fee": null, "crane:type": null, "operator": null, "manhole": null, "addr:state": "NY", "wikidata": "Q34639542", "name": "Barbadoes Basin", "gnis:feature_id": "942976", "ele": "1", "barrier": null, "access": null }, "geometry": { "type": "Point", "coordinates": [ -73.8068005, 40.5926049 ] } },
{ "type": "Feature", "properties": { "full_id": "n369036707", "osm_id": "369036707", "osm_type": "node", "leisure": null, "natural": "bay", "shop": null, "waterway": null, "man_made": null, "amenity": null, "image": null, "description": null, "website": null, "alt_name": null, "phone": null, "nysgissam:nysaddresspointid": null, "addr:street": null, "addr:postcode": null, "addr:housenumber": null, "addr:city": null, "seamark:type": null, "seamark:small_craft_facility:category": null, "brand:wikidata": null, "brand": null, "surface": null, "opening_hours": null, "lit": null, "fee": null, "crane:type": null, "operator": null, "manhole": null, "addr:state": "NY", "wikidata": "Q34640194", "name": "Bay of Fundy", "gnis:feature_id": "943181", "ele": "0", "barrier": null, "access": null }, "geometry": { "type": "Point", "coordinates": [ -73.5627636, 40.6125677 ] } },
{ "type": "Feature", "properties": { "full_id": "n369036906", "osm_id": "369036906", "osm_type": "node", "leisure": null, "natural": "bay", "shop": null, "waterway": null, "man_made": null, "amenity": null, "image": null, "description": null, "website": null, "alt_name": null, "phone": null, "nysgissam:nysaddresspointid": null, "addr:street": null, "addr:postcode": null, "addr:housenumber": null, "addr:city": null, "seamark:type": null, "seamark:small_craft_facility:category": null, "brand:wikidata": null, "brand": null, "surface": null, "opening_hours": null, "lit": null, "fee": null, "crane:type": null, "operator": null, "manhole": null, "addr:state": "NY", "wikidata": "Q34646132", "name": "Brosewere Bay", "gnis:feature_id": "944897", "ele": "0", "barrier": null, "access": null }, "geometry": { "type": "Point", "coordinates": [ -73.7009645, 40.6101041 ] } },
{ "type": "Feature", "properties": { "full_id": "n369037377", "osm_id": "369037377", "osm_type": "node", "leisure": null, "natural": "wetland", "shop": null, "waterway": null, "man_made": null, "amenity": null, "image": null, "description": null, "website": null, "alt_name": null, "phone": null, "nysgissam:nysaddresspointid": null, "addr:street": null, "addr:postcode": null, "addr:housenumber": null, "addr:city": null, "seamark:type": null, "seamark:small_craft_facility:category": null, "brand:wikidata": null, "brand": null, "surface": null, "opening_hours": null, "lit": null, "fee": null, "crane:type": null, "operator": null, "manhole": null, "addr:state": "NY", "wikidata": "Q49184347", "name": "Duck Creek Marsh", "gnis:feature_id": "948733", "ele": "0", "barrier": null, "access": null }, "geometry": { "type": "Point", "coordinates": [ -73.7929113, 40.6239932 ] } },
{ "type": "Feature", "properties": { "full_id": "n369037446", "osm_id": "369037446", "osm_type": "node", "leisure": null, "natural": "bay", "shop": null, "waterway": null, "man_made": null, "amenity": null, "image": null, "description": null, "website": null, "alt_name": null, "phone": null, "nysgissam:nysaddresspointid": null, "addr:street": null, "addr:postcode": null, "addr:housenumber": null, "addr:city": null, "seamark:type": null, "seamark:small_craft_facility:category": null, "brand:wikidata": null, "brand": null, "surface": null, "opening_hours": null, "lit": null, "fee": null, "crane:type": null, "operator": null, "manhole": null, "addr:state": "NY", "wikidata": null, "name": "East Bay", "gnis:feature_id": "948972", "ele": "0", "barrier": null, "access": null }, "geometry": { "type": "Point", "coordinates": [ -73.531238, 40.6348243 ] } },
{ "type": "Feature", "properties": { "full_id": "n369037613", "osm_id": "369037613", "osm_type": "node", "leisure": null, "natural": "wetland", "shop": null, "waterway": null, "man_made": null, "amenity": null, "image": null, "description": null, "website": null, "alt_name": null, "phone": null, "nysgissam:nysaddresspointid": null, "addr:street": null, "addr:postcode": null, "addr:housenumber": null, "addr:city": null, "seamark:type": null, "seamark:small_craft_facility:category": null, "brand:wikidata": null, "brand": null, "surface": null, "opening_hours": null, "lit": null, "fee": null, "crane:type": null, "operator": null, "manhole": null, "addr:state": "NY", "wikidata": "Q49189097", "name": "Garrett Marsh", "gnis:feature_id": "950923", "ele": "0", "barrier": null, "access": null }, "geometry": { "type": "Point", "coordinates": [ -73.638463, 40.6059369 ] } },
{ "type": "Feature", "properties": { "full_id": "n369037888", "osm_id": "369037888", "osm_type": "node", "leisure": null, "natural": "bay", "shop": null, "waterway": null, "man_made": null, "amenity": null, "image": null, "description": null, "website": null, "alt_name": null, "phone": null, "nysgissam:nysaddresspointid": null, "addr:street": null, "addr:postcode": null, "addr:housenumber": null, "addr:city": null, "seamark:type": null, "seamark:small_craft_facility:category": null, "brand:wikidata": null, "brand": null, "surface": null, "opening_hours": null, "lit": null, "fee": null, "crane:type": null, "operator": null, "manhole": null, "addr:state": "NY", "wikidata": "Q49379438", "name": "Hewlett Bay", "gnis:feature_id": "952661", "ele": "0", "barrier": null, "access": null }, "geometry": { "type": "Point", "coordinates": [ -73.6745749, 40.6253814 ] } },
{ "type": "Feature", "properties": { "full_id": "n369038392", "osm_id": "369038392", "osm_type": "node", "leisure": null, "natural": "bay", "shop": null, "waterway": null, "man_made": null, "amenity": null, "image": null, "description": null, "website": null, "alt_name": null, "phone": null, "nysgissam:nysaddresspointid": null, "addr:street": null, "addr:postcode": null, "addr:housenumber": null, "addr:city": null, "seamark:type": null, "seamark:small_craft_facility:category": null, "brand:wikidata": null, "brand": null, "surface": null, "opening_hours": null, "lit": null, "fee": null, "crane:type": null, "operator": null, "manhole": null, "addr:state": "NY", "wikidata": "Q49379233", "name": "Head of Bay", "gnis:feature_id": "952478", "ele": "0", "barrier": null, "access": null }, "geometry": { "type": "Point", "coordinates": [ -73.7562436, 40.6284375 ] } },
{ "type": "Feature", "properties": { "full_id": "n369038431", "osm_id": "369038431", "osm_type": "node", "leisure": null, "natural": "bay", "shop": null, "waterway": null, "man_made": null, "amenity": null, "image": null, "description": null, "website": null, "alt_name": null, "phone": null, "nysgissam:nysaddresspointid": null, "addr:street": null, "addr:postcode": null, "addr:housenumber": null, "addr:city": null, "seamark:type": null, "seamark:small_craft_facility:category": null, "brand:wikidata": null, "brand": null, "surface": null, "opening_hours": null, "lit": null, "fee": null, "crane:type": null, "operator": null, "manhole": null, "addr:state": "NY", "wikidata": "Q49380480", "name": "Island Park Harbor", "gnis:feature_id": "953830", "ele": "0", "barrier": null, "access": null }, "geometry": { "type": "Point", "coordinates": [ -73.6609636, 40.6067705 ] } },
{ "type": "Feature", "properties": { "full_id": "n369038520", "osm_id": "369038520", "osm_type": "node", "leisure": null, "natural": "wetland", "shop": null, "waterway": null, "man_made": null, "amenity": null, "image": null, "description": null, "website": null, "alt_name": null, "phone": null, "nysgissam:nysaddresspointid": null, "addr:street": null, "addr:postcode": null, "addr:housenumber": null, "addr:city": null, "seamark:type": null, "seamark:small_craft_facility:category": null, "brand:wikidata": null, "brand": null, "surface": null, "opening_hours": null, "lit": null, "fee": null, "crane:type": null, "operator": null, "manhole": null, "addr:state": "NY", "wikidata": "Q34688330", "name": "Lawrence Marsh", "gnis:feature_id": "955107", "ele": "0", "barrier": null, "access": null }, "geometry": { "type": "Point", "coordinates": [ -73.6951311, 40.5964932 ] } },
{ "type": "Feature", "properties": { "full_id": "n369038558", "osm_id": "369038558", "osm_type": "node", "leisure": null, "natural": "bay", "shop": null, "waterway": null, "man_made": null, "amenity": null, "image": null, "description": null, "website": null, "alt_name": null, "phone": null, "nysgissam:nysaddresspointid": null, "addr:street": null, "addr:postcode": null, "addr:housenumber": null, "addr:city": null, "seamark:type": null, "seamark:small_craft_facility:category": null, "brand:wikidata": null, "brand": null, "surface": null, "opening_hours": null, "lit": null, "fee": null, "crane:type": null, "operator": null, "manhole": null, "addr:state": "NY", "wikidata": "Q49383077", "name": "Little Bay", "gnis:feature_id": "955450", "ele": "0", "barrier": null, "access": null }, "geometry": { "type": "Point", "coordinates": [ -73.7798554, 40.5989936 ] } },
{ "type": "Feature", "properties": { "full_id": "n369039321", "osm_id": "369039321", "osm_type": "node", "leisure": null, "natural": "bay", "shop": null, "waterway": null, "man_made": null, "amenity": null, "image": null, "description": null, "website": null, "alt_name": null, "phone": null, "nysgissam:nysaddresspointid": null, "addr:street": null, "addr:postcode": null, "addr:housenumber": null, "addr:city": null, "seamark:type": null, "seamark:small_craft_facility:category": null, "brand:wikidata": null, "brand": null, "surface": null, "opening_hours": null, "lit": null, "fee": null, "crane:type": null, "operator": null, "manhole": null, "addr:state": "NY", "wikidata": "Q34695901", "name": "Middle Bay", "gnis:feature_id": "957075", "ele": "0", "barrier": null, "access": null }, "geometry": { "type": "Point", "coordinates": [ -73.6045733, 40.6176031 ] } },
{ "type": "Feature", "properties": { "full_id": "n369039362", "osm_id": "369039362", "osm_type": "node", "leisure": null, "natural": "bay", "shop": null, "waterway": null, "man_made": null, "amenity": null, "image": null, "description": null, "website": null, "alt_name": null, "phone": null, "nysgissam:nysaddresspointid": null, "addr:street": null, "addr:postcode": null, "addr:housenumber": null, "addr:city": null, "seamark:type": null, "seamark:small_craft_facility:category": null, "brand:wikidata": null, "brand": null, "surface": null, "opening_hours": null, "lit": null, "fee": null, "crane:type": null, "operator": null, "manhole": null, "addr:state": "NY", "wikidata": "Q34695557", "name": "Merrick Bay", "gnis:feature_id": "956992", "ele": "0", "barrier": null, "access": null }, "geometry": { "type": "Point", "coordinates": [ -73.5545719, 40.6392689 ] } },
{ "type": "Feature", "properties": { "full_id": "n369039707", "osm_id": "369039707", "osm_type": "node", "leisure": null, "natural": "wetland", "shop": null, "waterway": null, "man_made": null, "amenity": null, "image": null, "description": null, "website": null, "alt_name": null, "phone": null, "nysgissam:nysaddresspointid": null, "addr:street": null, "addr:postcode": null, "addr:housenumber": null, "addr:city": null, "seamark:type": null, "seamark:small_craft_facility:category": null, "brand:wikidata": null, "brand": null, "surface": null, "opening_hours": null, "lit": null, "fee": null, "crane:type": null, "operator": null, "manhole": null, "addr:state": "NY", "wikidata": "Q49213854", "name": "North Green Sedge", "gnis:feature_id": "958795", "ele": "0", "barrier": null, "access": null }, "geometry": { "type": "Point", "coordinates": [ -73.6892975, 40.6178816 ] } },
{ "type": "Feature", "properties": { "full_id": "n369039720", "osm_id": "369039720", "osm_type": "node", "leisure": null, "natural": "wetland", "shop": null, "waterway": null, "man_made": null, "amenity": null, "image": null, "description": null, "website": null, "alt_name": null, "phone": null, "nysgissam:nysaddresspointid": null, "addr:street": null, "addr:postcode": null, "addr:housenumber": null, "addr:city": null, "seamark:type": null, "seamark:small_craft_facility:category": null, "brand:wikidata": null, "brand": null, "surface": null, "opening_hours": null, "lit": null, "fee": null, "crane:type": null, "operator": null, "manhole": null, "addr:state": "NY", "wikidata": "Q49213917", "name": "Nums Marsh", "gnis:feature_id": "959067", "ele": "0", "barrier": null, "access": null }, "geometry": { "type": "Point", "coordinates": [ -73.6746721, 40.6206479 ] } },
{ "type": "Feature", "properties": { "full_id": "n369039735", "osm_id": "369039735", "osm_type": "node", "leisure": null, "natural": "bay", "shop": null, "waterway": null, "man_made": null, "amenity": null, "image": null, "description": null, "website": null, "alt_name": null, "phone": null, "nysgissam:nysaddresspointid": null, "addr:street": null, "addr:postcode": null, "addr:housenumber": null, "addr:city": null, "seamark:type": null, "seamark:small_craft_facility:category": null, "brand:wikidata": null, "brand": null, "surface": null, "opening_hours": null, "lit": null, "fee": null, "crane:type": null, "operator": null, "manhole": null, "addr:state": "NY", "wikidata": "Q49386797", "name": "Norton Basin", "gnis:feature_id": "959006", "ele": "0", "barrier": null, "access": null }, "geometry": { "type": "Point", "coordinates": [ -73.772633, 40.6048268 ] } },
{ "type": "Feature", "properties": { "full_id": "n369039900", "osm_id": "369039900", "osm_type": "node", "leisure": null, "natural": "bay", "shop": null, "waterway": null, "man_made": null, "amenity": null, "image": null, "description": null, "website": null, "alt_name": null, "phone": null, "nysgissam:nysaddresspointid": null, "addr:street": null, "addr:postcode": null, "addr:housenumber": null, "addr:city": null, "seamark:type": null, "seamark:small_craft_facility:category": null, "brand:wikidata": null, "brand": null, "surface": null, "opening_hours": null, "lit": null, "fee": null, "crane:type": null, "operator": null, "manhole": null, "addr:state": "NY", "wikidata": "Q49385648", "name": "Motts Basin", "gnis:feature_id": "957790", "ele": "0", "barrier": null, "access": null }, "geometry": { "type": "Point", "coordinates": [ -73.7606882, 40.6120489 ] } },
{ "type": "Feature", "properties": { "full_id": "n369039942", "osm_id": "369039942", "osm_type": "node", "leisure": null, "natural": "wetland", "shop": null, "waterway": null, "man_made": null, "amenity": null, "image": null, "description": null, "website": null, "alt_name": null, "phone": null, "nysgissam:nysaddresspointid": null, "addr:street": null, "addr:postcode": null, "addr:housenumber": null, "addr:city": null, "seamark:type": null, "seamark:small_craft_facility:category": null, "brand:wikidata": null, "brand": null, "surface": null, "opening_hours": null, "lit": null, "fee": null, "crane:type": null, "operator": null, "manhole": null, "addr:state": "NY", "wikidata": "Q49212344", "name": "Neds Meadow", "gnis:feature_id": "958326", "ele": "0", "barrier": null, "access": null }, "geometry": { "type": "Point", "coordinates": [ -73.5473496, 40.6301023 ] } },
{ "type": "Feature", "properties": { "full_id": "n369039983", "osm_id": "369039983", "osm_type": "node", "leisure": null, "natural": "wetland", "shop": null, "waterway": null, "man_made": null, "amenity": null, "image": null, "description": null, "website": null, "alt_name": null, "phone": null, "nysgissam:nysaddresspointid": null, "addr:street": null, "addr:postcode": null, "addr:housenumber": null, "addr:city": null, "seamark:type": null, "seamark:small_craft_facility:category": null, "brand:wikidata": null, "brand": null, "surface": null, "opening_hours": null, "lit": null, "fee": null, "crane:type": null, "operator": null, "manhole": null, "addr:state": "NY", "wikidata": "Q49216360", "name": "Pettit Marsh", "gnis:feature_id": "960261", "ele": "1", "barrier": null, "access": null }, "geometry": { "type": "Point", "coordinates": [ -73.5670723, 40.6231582 ] } },
{ "type": "Feature", "properties": { "full_id": "n369040027", "osm_id": "369040027", "osm_type": "node", "leisure": null, "natural": "wetland", "shop": null, "waterway": null, "man_made": null, "amenity": null, "image": null, "description": null, "website": null, "alt_name": null, "phone": null, "nysgissam:nysaddresspointid": null, "addr:street": null, "addr:postcode": null, "addr:housenumber": null, "addr:city": null, "seamark:type": null, "seamark:small_craft_facility:category": null, "brand:wikidata": null, "brand": null, "surface": null, "opening_hours": null, "lit": null, "fee": null, "crane:type": null, "operator": null, "manhole": null, "addr:state": "NY", "wikidata": "Q49216513", "name": "Pine Marsh", "gnis:feature_id": "960507", "ele": "0", "barrier": null, "access": null }, "geometry": { "type": "Point", "coordinates": [ -73.5745725, 40.6178806 ] } },
{ "type": "Feature", "properties": { "full_id": "n369040669", "osm_id": "369040669", "osm_type": "node", "leisure": null, "natural": "bay", "shop": null, "waterway": null, "man_made": null, "amenity": null, "image": null, "description": null, "website": null, "alt_name": null, "phone": null, "nysgissam:nysaddresspointid": null, "addr:street": null, "addr:postcode": null, "addr:housenumber": null, "addr:city": null, "seamark:type": null, "seamark:small_craft_facility:category": null, "brand:wikidata": null, "brand": null, "surface": null, "opening_hours": null, "lit": null, "fee": null, "crane:type": null, "operator": null, "manhole": null, "addr:state": "NY", "wikidata": "Q49389394", "name": "Randall Bay", "gnis:feature_id": "962167", "ele": "-1", "barrier": null, "access": null }, "geometry": { "type": "Point", "coordinates": [ -73.5876283, 40.6351026 ] } },
{ "type": "Feature", "properties": { "full_id": "n369041058", "osm_id": "369041058", "osm_type": "node", "leisure": null, "natural": "wetland", "shop": null, "waterway": null, "man_made": null, "amenity": null, "image": null, "description": null, "website": null, "alt_name": null, "phone": null, "nysgissam:nysaddresspointid": null, "addr:street": null, "addr:postcode": null, "addr:housenumber": null, "addr:city": null, "seamark:type": null, "seamark:small_craft_facility:category": null, "brand:wikidata": null, "brand": null, "surface": null, "opening_hours": null, "lit": null, "fee": null, "crane:type": null, "operator": null, "manhole": null, "addr:state": "NY", "wikidata": "Q34718828", "name": "South Green Sedge", "gnis:feature_id": "965757", "ele": "0", "barrier": null, "access": null }, "geometry": { "type": "Point", "coordinates": [ -73.6873531, 40.610104 ] } },
{ "type": "Feature", "properties": { "full_id": "n369041106", "osm_id": "369041106", "osm_type": "node", "leisure": null, "natural": "bay", "shop": null, "waterway": null, "man_made": null, "amenity": null, "image": null, "description": null, "website": null, "alt_name": null, "phone": null, "nysgissam:nysaddresspointid": null, "addr:street": null, "addr:postcode": null, "addr:housenumber": null, "addr:city": null, "seamark:type": null, "seamark:small_craft_facility:category": null, "brand:wikidata": null, "brand": null, "surface": null, "opening_hours": null, "lit": null, "fee": null, "crane:type": null, "operator": null, "manhole": null, "addr:state": "NY", "wikidata": "Q49392494", "name": "Sommerville Basin", "gnis:feature_id": "965636", "ele": "0", "barrier": null, "access": null }, "geometry": { "type": "Point", "coordinates": [ -73.7879111, 40.6001047 ] } },
{ "type": "Feature", "properties": { "full_id": "n369041472", "osm_id": "369041472", "osm_type": "node", "leisure": null, "natural": "bay", "shop": null, "waterway": null, "man_made": null, "amenity": null, "image": null, "description": null, "website": null, "alt_name": null, "phone": null, "nysgissam:nysaddresspointid": null, "addr:street": null, "addr:postcode": null, "addr:housenumber": null, "addr:city": null, "seamark:type": null, "seamark:small_craft_facility:category": null, "brand:wikidata": null, "brand": null, "surface": null, "opening_hours": null, "lit": null, "fee": null, "crane:type": null, "operator": null, "manhole": null, "addr:state": "NY", "wikidata": "Q49393874", "name": "Thurston Basin", "gnis:feature_id": "970716", "ele": "-2", "barrier": null, "access": null }, "geometry": { "type": "Point", "coordinates": [ -73.7470767, 40.6420484 ] } },
{ "type": "Feature", "properties": { "full_id": "n369041522", "osm_id": "369041522", "osm_type": "node", "leisure": null, "natural": "wetland", "shop": null, "waterway": null, "man_made": null, "amenity": null, "image": null, "description": null, "website": null, "alt_name": null, "phone": null, "nysgissam:nysaddresspointid": null, "addr:street": null, "addr:postcode": null, "addr:housenumber": null, "addr:city": null, "seamark:type": null, "seamark:small_craft_facility:category": null, "brand:wikidata": null, "brand": null, "surface": null, "opening_hours": null, "lit": null, "fee": null, "crane:type": null, "operator": null, "manhole": null, "addr:state": "NY", "wikidata": "Q34673040", "name": "False Channel Meadow", "gnis:feature_id": "970116", "ele": "0", "barrier": null, "access": null }, "geometry": { "type": "Point", "coordinates": [ -73.5540164, 40.6273246 ] } },
{ "type": "Feature", "properties": { "full_id": "n369041547", "osm_id": "369041547", "osm_type": "node", "leisure": null, "natural": "bay", "shop": null, "waterway": null, "man_made": null, "amenity": null, "image": null, "description": null, "website": null, "alt_name": null, "phone": null, "nysgissam:nysaddresspointid": null, "addr:street": null, "addr:postcode": null, "addr:housenumber": null, "addr:city": null, "seamark:type": null, "seamark:small_craft_facility:category": null, "brand:wikidata": null, "brand": null, "surface": null, "opening_hours": null, "lit": null, "fee": null, "crane:type": null, "operator": null, "manhole": null, "addr:state": "NY", "wikidata": "Q49387540", "name": "Parsonage Cove", "gnis:feature_id": "970457", "ele": "0", "barrier": null, "access": null }, "geometry": { "type": "Point", "coordinates": [ -73.6154068, 40.6253808 ] } },
{ "type": "Feature", "properties": { "full_id": "n369041638", "osm_id": "369041638", "osm_type": "node", "leisure": null, "natural": "bay", "shop": null, "waterway": null, "man_made": null, "amenity": null, "image": null, "description": null, "website": null, "alt_name": null, "phone": null, "nysgissam:nysaddresspointid": null, "addr:street": null, "addr:postcode": null, "addr:housenumber": null, "addr:city": null, "seamark:type": null, "seamark:small_craft_facility:category": null, "brand:wikidata": null, "brand": null, "surface": null, "opening_hours": null, "lit": null, "fee": null, "crane:type": null, "operator": null, "manhole": null, "addr:state": "NY", "wikidata": "Q49394573", "name": "Vernam Basin", "gnis:feature_id": "968493", "ele": "0", "barrier": null, "access": null }, "geometry": { "type": "Point", "coordinates": [ -73.8040227, 40.594827 ] } },
{ "type": "Feature", "properties": { "full_id": "n369041984", "osm_id": "369041984", "osm_type": "node", "leisure": null, "natural": "bay", "shop": null, "waterway": null, "man_made": null, "amenity": null, "image": null, "description": null, "website": null, "alt_name": null, "phone": null, "nysgissam:nysaddresspointid": null, "addr:street": null, "addr:postcode": null, "addr:housenumber": null, "addr:city": null, "seamark:type": null, "seamark:small_craft_facility:category": null, "brand:wikidata": null, "brand": null, "surface": null, "opening_hours": null, "lit": null, "fee": null, "crane:type": null, "operator": null, "manhole": null, "addr:state": "NY", "wikidata": "Q34639521", "name": "Bannister Bay", "gnis:feature_id": "971906", "ele": "0", "barrier": null, "access": null }, "geometry": { "type": "Point", "coordinates": [ -73.7312171, 40.6039396 ] } },
{ "type": "Feature", "properties": { "full_id": "n369042218", "osm_id": "369042218", "osm_type": "node", "leisure": null, "natural": "bay", "shop": null, "waterway": null, "man_made": null, "amenity": null, "image": null, "description": null, "website": null, "alt_name": null, "phone": null, "nysgissam:nysaddresspointid": null, "addr:street": null, "addr:postcode": null, "addr:housenumber": null, "addr:city": null, "seamark:type": null, "seamark:small_craft_facility:category": null, "brand:wikidata": null, "brand": null, "surface": null, "opening_hours": null, "lit": null, "fee": null, "crane:type": null, "operator": null, "manhole": null, "addr:state": "NY", "wikidata": "Q49380830", "name": "Jones Bay", "gnis:feature_id": "974288", "ele": "0", "barrier": null, "access": null }, "geometry": { "type": "Point", "coordinates": [ -73.5579056, 40.5948252 ] } },
{ "type": "Feature", "properties": { "full_id": "n369044958", "osm_id": "369044958", "osm_type": "node", "leisure": null, "natural": "wetland", "shop": null, "waterway": null, "man_made": null, "amenity": null, "image": null, "description": null, "website": null, "alt_name": null, "phone": null, "nysgissam:nysaddresspointid": null, "addr:street": null, "addr:postcode": null, "addr:housenumber": null, "addr:city": null, "seamark:type": null, "seamark:small_craft_facility:category": null, "brand:wikidata": null, "brand": null, "surface": null, "opening_hours": null, "lit": null, "fee": null, "crane:type": null, "operator": null, "manhole": null, "addr:state": "NY", "wikidata": "Q34698520", "name": "High Flats Marsh", "gnis:feature_id": "2075832", "ele": "1", "barrier": null, "access": null }, "geometry": { "type": "Point", "coordinates": [ -73.5597222, 40.6313889 ] } },
{ "type": "Feature", "properties": { "full_id": "n369045015", "osm_id": "369045015", "osm_type": "node", "leisure": null, "natural": "bay", "shop": null, "waterway": null, "man_made": null, "amenity": null, "image": null, "description": null, "website": null, "alt_name": null, "phone": null, "nysgissam:nysaddresspointid": null, "addr:street": null, "addr:postcode": null, "addr:housenumber": null, "addr:city": null, "seamark:type": null, "seamark:small_craft_facility:category": null, "brand:wikidata": null, "brand": null, "surface": null, "opening_hours": null, "lit": null, "fee": null, "crane:type": null, "operator": null, "manhole": null, "addr:state": "NY", "wikidata": null, "name": "Hempstead Bay", "gnis:feature_id": "1802631", "ele": "0", "barrier": null, "access": null }, "geometry": { "type": "Point", "coordinates": [ -73.5504054, 40.6051028 ] } },
{ "type": "Feature", "properties": { "full_id": "n2582392872", "osm_id": "2582392872", "osm_type": "node", "leisure": null, "natural": "beach", "shop": null, "waterway": null, "man_made": null, "amenity": null, "image": null, "description": null, "website": null, "alt_name": null, "phone": null, "nysgissam:nysaddresspointid": null, "addr:street": null, "addr:postcode": null, "addr:housenumber": null, "addr:city": null, "seamark:type": null, "seamark:small_craft_facility:category": null, "brand:wikidata": null, "brand": null, "surface": null, "opening_hours": null, "lit": null, "fee": null, "crane:type": null, "operator": null, "manhole": null, "addr:state": null, "wikidata": null, "name": "Sun and Surf Beach Club", "gnis:feature_id": null, "ele": null, "barrier": null, "access": null }, "geometry": { "type": "Point", "coordinates": [ -73.7497337, 40.586828 ] } },
{ "type": "Feature", "properties": { "full_id": "n4075280878", "osm_id": "4075280878", "osm_type": "node", "leisure": "slipway", "natural": null, "shop": null, "waterway": null, "man_made": null, "amenity": null, "image": null, "description": null, "website": null, "alt_name": null, "phone": null, "nysgissam:nysaddresspointid": null, "addr:street": null, "addr:postcode": null, "addr:housenumber": null, "addr:city": null, "seamark:type": null, "seamark:small_craft_facility:category": null, "brand:wikidata": null, "brand": null, "surface": null, "opening_hours": null, "lit": null, "fee": null, "crane:type": null, "operator": null, "manhole": null, "addr:state": null, "wikidata": null, "name": "Long Beach Recreation Center Boat Launch", "gnis:feature_id": null, "ele": null, "barrier": null, "access": null }, "geometry": { "type": "Point", "coordinates": [ -73.6659248, 40.5936919 ] } },
{ "type": "Feature", "properties": { "full_id": "n4545925306", "osm_id": "4545925306", "osm_type": "node", "leisure": "slipway", "natural": null, "shop": null, "waterway": null, "man_made": null, "amenity": null, "image": null, "description": null, "website": null, "alt_name": null, "phone": null, "nysgissam:nysaddresspointid": null, "addr:street": null, "addr:postcode": null, "addr:housenumber": null, "addr:city": null, "seamark:type": null, "seamark:small_craft_facility:category": null, "brand:wikidata": null, "brand": null, "surface": "wood", "opening_hours": "sunrise-sunset", "lit": "no", "fee": "no", "crane:type": null, "operator": null, "manhole": null, "addr:state": null, "wikidata": null, "name": "Hook Creek Park Kayak/Canoe Launch", "gnis:feature_id": null, "ele": null, "barrier": null, "access": "yes" }, "geometry": { "type": "Point", "coordinates": [ -73.7370178, 40.6491481 ] } },
{ "type": "Feature", "properties": { "full_id": "n5016902996", "osm_id": "5016902996", "osm_type": "node", "leisure": null, "natural": null, "shop": "boat", "waterway": null, "man_made": null, "amenity": null, "image": null, "description": null, "website": null, "alt_name": null, "phone": null, "nysgissam:nysaddresspointid": null, "addr:street": null, "addr:postcode": null, "addr:housenumber": null, "addr:city": null, "seamark:type": "small_craft_facility", "seamark:small_craft_facility:category": "chandler", "brand:wikidata": "Q7985852", "brand": "West Marine", "surface": null, "opening_hours": null, "lit": null, "fee": null, "crane:type": null, "operator": null, "manhole": null, "addr:state": null, "wikidata": null, "name": "West Marine", "gnis:feature_id": null, "ele": null, "barrier": null, "access": null }, "geometry": { "type": "Point", "coordinates": [ -73.6444559, 40.6137006 ] } },
{ "type": "Feature", "properties": { "full_id": "n5777792608", "osm_id": "5777792608", "osm_type": "node", "leisure": null, "natural": null, "shop": null, "waterway": null, "man_made": null, "amenity": "boat_rental", "image": null, "description": null, "website": null, "alt_name": null, "phone": null, "nysgissam:nysaddresspointid": "NASS388641", "addr:street": "Empire Boulevard", "addr:postcode": "11558", "addr:housenumber": "4", "addr:city": "Island Park", "seamark:type": null, "seamark:small_craft_facility:category": null, "brand:wikidata": null, "brand": null, "surface": null, "opening_hours": null, "lit": null, "fee": null, "crane:type": null, "operator": null, "manhole": null, "addr:state": "NY", "wikidata": null, "name": "Empire Kayaks", "gnis:feature_id": null, "ele": null, "barrier": null, "access": null }, "geometry": { "type": "Point", "coordinates": [ -73.6406161, 40.6128815 ] } },
{ "type": "Feature", "properties": { "full_id": "n5780547410", "osm_id": "5780547410", "osm_type": "node", "leisure": null, "natural": null, "shop": null, "waterway": "boatyard", "man_made": null, "amenity": null, "image": null, "description": null, "website": null, "alt_name": null, "phone": "+1-516-431-0760", "nysgissam:nysaddresspointid": null, "addr:street": null, "addr:postcode": null, "addr:housenumber": null, "addr:city": null, "seamark:type": null, "seamark:small_craft_facility:category": null, "brand:wikidata": null, "brand": null, "surface": null, "opening_hours": null, "lit": null, "fee": null, "crane:type": null, "operator": null, "manhole": null, "addr:state": null, "wikidata": null, "name": "Andy's Marine", "gnis:feature_id": null, "ele": null, "barrier": null, "access": null }, "geometry": { "type": "Point", "coordinates": [ -73.6654944, 40.5981793 ] } },
{ "type": "Feature", "properties": { "full_id": "n6030126915", "osm_id": "6030126915", "osm_type": "node", "leisure": null, "natural": "bay", "shop": null, "waterway": null, "man_made": null, "amenity": null, "image": null, "description": null, "website": "https://www.congress.gov/bill/115th-congress/senate-bill/1668", "alt_name": "Negro Bay Channel", "phone": null, "nysgissam:nysaddresspointid": null, "addr:street": null, "addr:postcode": null, "addr:housenumber": null, "addr:city": null, "seamark:type": null, "seamark:small_craft_facility:category": null, "brand:wikidata": null, "brand": null, "surface": null, "opening_hours": null, "lit": null, "fee": null, "crane:type": null, "operator": null, "manhole": null, "addr:state": null, "wikidata": null, "name": "Joseph Sanford Jr. Channel", "gnis:feature_id": null, "ele": null, "barrier": null, "access": null }, "geometry": { "type": "Point", "coordinates": [ -73.7675463, 40.6148857 ] } },
{ "type": "Feature", "properties": { "full_id": "n6689855277", "osm_id": "6689855277", "osm_type": "node", "leisure": null, "natural": null, "shop": null, "waterway": null, "man_made": null, "amenity": "boat_rental", "image": null, "description": null, "website": null, "alt_name": null, "phone": null, "nysgissam:nysaddresspointid": null, "addr:street": null, "addr:postcode": null, "addr:housenumber": null, "addr:city": null, "seamark:type": null, "seamark:small_craft_facility:category": null, "brand:wikidata": null, "brand": null, "surface": null, "opening_hours": null, "lit": null, "fee": "yes", "crane:type": null, "operator": null, "manhole": null, "addr:state": null, "wikidata": null, "name": "Party Boat Central", "gnis:feature_id": null, "ele": null, "barrier": null, "access": null }, "geometry": { "type": "Point", "coordinates": [ -73.5825883, 40.6375974 ] } },
{ "type": "Feature", "properties": { "full_id": "n7520517400", "osm_id": "7520517400", "osm_type": "node", "leisure": null, "natural": "cape", "shop": null, "waterway": null, "man_made": null, "amenity": null, "image": null, "description": null, "website": null, "alt_name": null, "phone": null, "nysgissam:nysaddresspointid": null, "addr:street": null, "addr:postcode": null, "addr:housenumber": null, "addr:city": null, "seamark:type": null, "seamark:small_craft_facility:category": null, "brand:wikidata": null, "brand": null, "surface": null, "opening_hours": null, "lit": null, "fee": null, "crane:type": null, "operator": null, "manhole": null, "addr:state": null, "wikidata": null, "name": "Motts Point", "gnis:feature_id": null, "ele": null, "barrier": null, "access": null }, "geometry": { "type": "Point", "coordinates": [ -73.7732363, 40.6134312 ] } },
{ "type": "Feature", "properties": { "full_id": "n7520517401", "osm_id": "7520517401", "osm_type": "node", "leisure": null, "natural": "cape", "shop": null, "waterway": null, "man_made": null, "amenity": null, "image": null, "description": null, "website": null, "alt_name": null, "phone": null, "nysgissam:nysaddresspointid": null, "addr:street": null, "addr:postcode": null, "addr:housenumber": null, "addr:city": null, "seamark:type": null, "seamark:small_craft_facility:category": null, "brand:wikidata": null, "brand": null, "surface": null, "opening_hours": null, "lit": null, "fee": null, "crane:type": null, "operator": null, "manhole": null, "addr:state": null, "wikidata": null, "name": "Black Point", "gnis:feature_id": null, "ele": null, "barrier": null, "access": null }, "geometry": { "type": "Point", "coordinates": [ -73.7807894, 40.6142131 ] } },
{ "type": "Feature", "properties": { "full_id": "n7525199570", "osm_id": "7525199570", "osm_type": "node", "leisure": null, "natural": "cape", "shop": null, "waterway": null, "man_made": null, "amenity": null, "image": null, "description": null, "website": null, "alt_name": null, "phone": null, "nysgissam:nysaddresspointid": null, "addr:street": null, "addr:postcode": null, "addr:housenumber": null, "addr:city": null, "seamark:type": null, "seamark:small_craft_facility:category": null, "brand:wikidata": null, "brand": null, "surface": null, "opening_hours": null, "lit": null, "fee": null, "crane:type": null, "operator": null, "manhole": null, "addr:state": null, "wikidata": null, "name": "Uncle Daniels Point", "gnis:feature_id": null, "ele": null, "barrier": null, "access": null }, "geometry": { "type": "Point", "coordinates": [ -73.7458778, 40.6306138 ] } },
{ "type": "Feature", "properties": { "full_id": "n7527168900", "osm_id": "7527168900", "osm_type": "node", "leisure": null, "natural": "cape", "shop": null, "waterway": null, "man_made": null, "amenity": null, "image": null, "description": null, "website": null, "alt_name": null, "phone": null, "nysgissam:nysaddresspointid": null, "addr:street": null, "addr:postcode": null, "addr:housenumber": null, "addr:city": null, "seamark:type": null, "seamark:small_craft_facility:category": null, "brand:wikidata": null, "brand": null, "surface": null, "opening_hours": null, "lit": null, "fee": null, "crane:type": null, "operator": null, "manhole": null, "addr:state": null, "wikidata": null, "name": "Northwest Point", "gnis:feature_id": null, "ele": null, "barrier": null, "access": null }, "geometry": { "type": "Point", "coordinates": [ -73.7633658, 40.6227315 ] } },
{ "type": "Feature", "properties": { "full_id": "n7527168901", "osm_id": "7527168901", "osm_type": "node", "leisure": null, "natural": "cape", "shop": null, "waterway": null, "man_made": null, "amenity": null, "image": null, "description": null, "website": null, "alt_name": null, "phone": null, "nysgissam:nysaddresspointid": null, "addr:street": null, "addr:postcode": null, "addr:housenumber": null, "addr:city": null, "seamark:type": null, "seamark:small_craft_facility:category": null, "brand:wikidata": null, "brand": null, "surface": null, "opening_hours": null, "lit": null, "fee": null, "crane:type": null, "operator": null, "manhole": null, "addr:state": null, "wikidata": null, "name": "Conchs Hole Point", "gnis:feature_id": null, "ele": null, "barrier": null, "access": null }, "geometry": { "type": "Point", "coordinates": [ -73.7863898, 40.6029403 ] } },
{ "type": "Feature", "properties": { "full_id": "n7527168902", "osm_id": "7527168902", "osm_type": "node", "leisure": null, "natural": "cape", "shop": null, "waterway": null, "man_made": null, "amenity": null, "image": null, "description": null, "website": null, "alt_name": null, "phone": null, "nysgissam:nysaddresspointid": null, "addr:street": null, "addr:postcode": null, "addr:housenumber": null, "addr:city": null, "seamark:type": null, "seamark:small_craft_facility:category": null, "brand:wikidata": null, "brand": null, "surface": null, "opening_hours": null, "lit": null, "fee": null, "crane:type": null, "operator": null, "manhole": null, "addr:state": null, "wikidata": null, "name": "Brant Point", "gnis:feature_id": null, "ele": null, "barrier": null, "access": null }, "geometry": { "type": "Point", "coordinates": [ -73.8028479, 40.5987614 ] } },
{ "type": "Feature", "properties": { "full_id": "n7527168903", "osm_id": "7527168903", "osm_type": "node", "leisure": null, "natural": "cape", "shop": null, "waterway": null, "man_made": null, "amenity": null, "image": null, "description": null, "website": null, "alt_name": null, "phone": null, "nysgissam:nysaddresspointid": null, "addr:street": null, "addr:postcode": null, "addr:housenumber": null, "addr:city": null, "seamark:type": null, "seamark:small_craft_facility:category": null, "brand:wikidata": null, "brand": null, "surface": null, "opening_hours": null, "lit": null, "fee": null, "crane:type": null, "operator": null, "manhole": null, "addr:state": null, "wikidata": null, "name": "Nicks Point", "gnis:feature_id": null, "ele": null, "barrier": null, "access": null }, "geometry": { "type": "Point", "coordinates": [ -73.5400343, 40.6431031 ] } },
{ "type": "Feature", "properties": { "full_id": "n7527168904", "osm_id": "7527168904", "osm_type": "node", "leisure": null, "natural": "cape", "shop": null, "waterway": null, "man_made": null, "amenity": null, "image": null, "description": null, "website": null, "alt_name": null, "phone": null, "nysgissam:nysaddresspointid": null, "addr:street": null, "addr:postcode": null, "addr:housenumber": null, "addr:city": null, "seamark:type": null, "seamark:small_craft_facility:category": null, "brand:wikidata": null, "brand": null, "surface": null, "opening_hours": null, "lit": null, "fee": null, "crane:type": null, "operator": null, "manhole": null, "addr:state": null, "wikidata": "Q34695569", "name": "Merrick Point", "gnis:feature_id": null, "ele": null, "barrier": null, "access": null }, "geometry": { "type": "Point", "coordinates": [ -73.5462141, 40.6388697 ] } },
{ "type": "Feature", "properties": { "full_id": "n7527168905", "osm_id": "7527168905", "osm_type": "node", "leisure": null, "natural": "cape", "shop": null, "waterway": null, "man_made": null, "amenity": null, "image": null, "description": null, "website": null, "alt_name": null, "phone": null, "nysgissam:nysaddresspointid": null, "addr:street": null, "addr:postcode": null, "addr:housenumber": null, "addr:city": null, "seamark:type": null, "seamark:small_craft_facility:category": null, "brand:wikidata": null, "brand": null, "surface": null, "opening_hours": null, "lit": null, "fee": null, "crane:type": null, "operator": null, "manhole": null, "addr:state": null, "wikidata": null, "name": "Whaleneck Point", "gnis:feature_id": null, "ele": null, "barrier": null, "access": null }, "geometry": { "type": "Point", "coordinates": [ -73.5317517, 40.6390651 ] } },
{ "type": "Feature", "properties": { "full_id": "n7527168906", "osm_id": "7527168906", "osm_type": "node", "leisure": null, "natural": "cape", "shop": null, "waterway": null, "man_made": null, "amenity": null, "image": null, "description": null, "website": null, "alt_name": null, "phone": null, "nysgissam:nysaddresspointid": null, "addr:street": null, "addr:postcode": null, "addr:housenumber": null, "addr:city": null, "seamark:type": null, "seamark:small_craft_facility:category": null, "brand:wikidata": null, "brand": null, "surface": null, "opening_hours": null, "lit": null, "fee": null, "crane:type": null, "operator": null, "manhole": null, "addr:state": null, "wikidata": "Q34730675", "name": "White Point", "gnis:feature_id": null, "ele": null, "barrier": null, "access": null }, "geometry": { "type": "Point", "coordinates": [ -73.5202503, 40.6394721 ] } },
{ "type": "Feature", "properties": { "full_id": "n7527800339", "osm_id": "7527800339", "osm_type": "node", "leisure": null, "natural": "cape", "shop": null, "waterway": null, "man_made": null, "amenity": null, "image": null, "description": null, "website": null, "alt_name": null, "phone": null, "nysgissam:nysaddresspointid": null, "addr:street": null, "addr:postcode": null, "addr:housenumber": null, "addr:city": null, "seamark:type": null, "seamark:small_craft_facility:category": null, "brand:wikidata": null, "brand": null, "surface": null, "opening_hours": null, "lit": null, "fee": null, "crane:type": null, "operator": null, "manhole": null, "addr:state": null, "wikidata": null, "name": "Norton Point", "gnis:feature_id": null, "ele": null, "barrier": null, "access": null }, "geometry": { "type": "Point", "coordinates": [ -73.7425089, 40.6322341 ] } },
{ "type": "Feature", "properties": { "full_id": "n9806832321", "osm_id": "9806832321", "osm_type": "node", "leisure": null, "natural": null, "shop": null, "waterway": null, "man_made": null, "amenity": "boat_rental", "image": "https://www.google.com/search?q=island+jetskis&rlz=1C1CHBF_enUS1008US1008&sxsrf=ALiCzsYmfHQvbxTWV3v2s15Kq0s4whB1Kg:1654790888515&source=lnms&tbm=isch&sa=X&ved=2ahUKEwjxltm44KD4AhUvkYkEHcNzAaoQ_AUoAnoECAIQBA&biw=1920&bih=969&dpr=1#imgrc=74Rq-7_8ISkaqM", "description": "Jet ski rentals based off the Nautical Mile in Freeport, NY", "website": null, "alt_name": null, "phone": null, "nysgissam:nysaddresspointid": null, "addr:street": "Woodcleft Avenue", "addr:postcode": "11520", "addr:housenumber": "144", "addr:city": "Freeport", "seamark:type": null, "seamark:small_craft_facility:category": null, "brand:wikidata": null, "brand": null, "surface": null, "opening_hours": null, "lit": null, "fee": null, "crane:type": null, "operator": null, "manhole": null, "addr:state": "NY", "wikidata": null, "name": "Island Jet Skis", "gnis:feature_id": null, "ele": null, "barrier": null, "access": null }, "geometry": { "type": "Point", "coordinates": [ -73.5826102, 40.635977 ] } },
{ "type": "Feature", "properties": { "full_id": "n10983187614", "osm_id": "10983187614", "osm_type": "node", "leisure": null, "natural": null, "shop": null, "waterway": "fuel", "man_made": null, "amenity": null, "image": null, "description": null, "website": null, "alt_name": null, "phone": null, "nysgissam:nysaddresspointid": null, "addr:street": null, "addr:postcode": null, "addr:housenumber": null, "addr:city": null, "seamark:type": "small_craft_facility", "seamark:small_craft_facility:category": "fuel_station", "brand:wikidata": null, "brand": null, "surface": null, "opening_hours": null, "lit": null, "fee": null, "crane:type": null, "operator": null, "manhole": null, "addr:state": null, "wikidata": null, "name": "Valvitect", "gnis:feature_id": null, "ele": null, "barrier": null, "access": null }, "geometry": { "type": "Point", "coordinates": [ -73.5795659, 40.5945399 ] } }
]
}
